TURKMENALEM52E/MONACOSAT
1 40617U 15023A   21232.41438484  .00000082  00000-0  00000-0 0  9995
2 40617   0.0168 106.4423 0002936  40.0460  23.6379  1.00272206 23172
DIRECTV 15              
1 40663U 15026A   21232.34787708 -.00000124  00000-0  00000-0 0  9995
2 40663   0.0206 102.8831 0000469 335.1712 273.2145  1.00272372 22791
SKY MEXICO-1            
1 40664U 15026B   21232.35267407 -.00000256  00000-0  00000-0 0  9992
2 40664   0.0155  99.6182 0002292  46.0008 231.4695  1.00272207 22781
METEOSAT-11 (MSG-4)     
1 40732U 15034A   21232.29657608 -.00000024  00000-0  00000-0 0  9999
2 40732   0.2369 124.8143 0000514  44.4382 266.2823  1.00277398 22354
STAR ONE C4             
1 40733U 15034B   21232.42618420 -.00000286  00000-0  00000-0 0  9994
2 40733   0.0288   9.4845 0002041 108.6018 294.2897  1.00268234 22357
WGS F7 (USA 263)        
1 40746U 15036A   21232.47215399 -.00000005  00000-0  00000-0 0  9992
2 40746   0.0151 116.2386 0000475  77.7268 120.0140  1.00267638 22218
INTELSAT 34 (IS-34)     
1 40874U 15039A   21232.35738385 -.00000307  00000-0  00000-0 0  9994
2 40874   0.0585 280.3560 0001176 121.0032   0.7020  1.00271515 21960
EUTELSAT 8 WEST B       
1 40875U 15039B   21232.36680341 -.00000087  00000-0  00000-0 0  9999
2 40875   0.0683  30.4543 0004484  85.0200 337.4833  1.00272255 21993
GSAT-6                  
1 40880U 15041A   21232.39771654 -.00000181  00000-0  00000-0 0  9994
2 40880   0.0821 280.0136 0004528 239.4347  35.1478  1.00269328 21950
INMARSAT 5-F3           
1 40882U 15042A   21232.43938557  .00000028  00000-0  00000-0 0  9998
2 40882   0.0158 108.7867 0000322 318.5515 239.3993  1.00271557 21908
MUOS-4                  
1 40887U 15044A   21232.40327348 -.00000110  00000-0  00000-0 0  9995
2 40887   2.6195 356.3089 0050633   1.0933 191.7472  1.00271386 21898
TJS-1                   
1 40892U 15046A   21231.46185094 -.00000178  00000-0  00000-0 0  9992
2 40892   0.1176 282.5565 0005066 115.7007 250.9668  1.00263463 21881
EXPRESS-AM8             
1 40895U 15048A   21231.41842351 -.00000130  00000-0  00000-0 0  9996
2 40895   0.0317 255.5086 0000084 322.9538 246.1384  1.00271374 21707
BEIDOU 20               
1 40938U 15053A   21232.44178324 -.00000097  00000-0  00000-0 0  9998
2 40938  51.9649 279.3284 0048282 195.1955 109.8172  1.00268513 21685
SKY MUSTER 1 (NBN1A)    
1 40940U 15054A   21232.39635559 -.00000301  00000-0  00000-0 0  9992
2 40940   0.0145 142.7434 0001930   1.0872 108.0378  1.00269544 21590
ARSAT 2                 
1 40941U 15054B   21232.35223799 -.00000246  00000-0  00000-0 0  9996
2 40941   0.0597 280.1172 0002058 215.1493 239.4210  1.00270044 21655
MORELOS 3               
1 40946U 15056A   21232.33411937 -.00000059  00000-0  00000-0 0  9996
2 40946   4.1561 331.1710 0003520 182.3118 182.5709  1.00271920 21627
APSTAR 9                
1 40982U 15059A   21232.61209104 -.00000288  00000-0  00000-0 0  9995
2 40982   0.0380 263.9890 0002499 217.1700 210.3482  1.00270790 21486
TURKSAT 4B              
1 40984U 15060A   21232.41438484  .00000093  00000-0  00000-0 0  9995
2 40984   0.0377 276.5587 0002200 230.8126  20.7537  1.00274863 21446
CHINASAT 2C (ZX 2C)     
1 41021U 15063A   21232.46076757 -.00000345  00000-0  00000-0 0  9998
2 41021   0.0182 154.0113 0001060 324.6746 119.6161  1.00270350 21337
GSAT-15                 
1 41028U 15065A   21232.39215937 -.00000279  00000-0  00000-0 0  9990
2 41028   0.0753 281.5456 0003161 195.2051  86.8541  1.00269376 21141
BADR-7 (ARABSAT-6B)     
1 41029U 15065B   21232.37341098  .00000123  00000-0  00000-0 0  9994
2 41029   0.0552 260.8978 0005236 311.0959 277.3405  1.00269017 21102
LAOSAT 1                
1 41034U 15067A   21232.39400071 -.00000365  00000-0  00000-0 0  9990
2 41034   0.0328 248.4483 0001531 234.9470 115.8856  1.00273140 21194
TELSTAR 12V             
1 41036U 15068A   21232.36540793 -.00000140  00000-0  00000-0 0  9997
2 41036   0.0141 100.9881 0002140  42.7373 301.7327  1.00273072 20953
CHINASAT 1C (ZX 1C)     
1 41103U 15073A   21232.59996772 -.00000173  00000-0  00000-0 0  9991
2 41103   2.6473  88.3330 0002308  29.3552 148.8475  1.00272424 20996
ELEKTRO-L 2             
1 41105U 15074A   21232.36549514 -.00000137  00000-0  00000-0 0  9997
2 41105   2.2350  91.7465 0002593  64.5489 289.7081  1.00272470 20844
COSMOS 2513             
1 41121U 15075A   21232.39771654 -.00000159  00000-0  00000-0 0  9995
2 41121   0.0466 115.1302 0002686  40.0479  37.1723  1.00269593 20860
EXPRESS-AMU1            
1 41191U 15082A   21232.28660441  .00000134  00000-0  00000-0 0  9991
2 41191   0.0191 126.1346 0003241  35.4636 306.5540  1.00276632 20618
GAOFEN 4                
1 41194U 15083A   21231.72175257 -.00000354  00000-0  00000+0 0  9993
2 41194   0.0247 145.2308 0001645  57.5977 130.9744  1.00268721 20819
BELINTERSAT-1           
1 41238U 16001A   21232.41438484  .00000085  00000-0  00000-0 0  9995
2 41238   0.0265  99.5673 0001472  16.9476  53.1242  1.00270285 20597
IRNSS-1E                
1 41241U 16003A   21232.03176865 -.00000325  00000-0  00000-0 0  9999
2 41241  29.3097  89.3491 0020338 177.5004 184.9428  1.00278119 20410
EUTELSAT 9B             
1 41310U 16005A   21232.37011771  .00000040  00000-0  00000-0 0  9992
2 41310   0.0634  80.4711 0003215 152.4315 238.2231  1.00271971 20457
SES-9                   
1 41380U 16013A   21232.38998867 -.00000367  00000-0  00000-0 0  9992
2 41380   0.0591 279.3384 0002126 196.3777 101.9053  1.00271149 19778
EUTELSAT 65 WEST A      
1 41382U 16014A   21232.35537784 -.00000297  00000-0  00000-0 0  9991
2 41382   0.0534 353.4725 0002197 147.7153 250.4274  1.00273840 19872
IRNSS-1F                
1 41384U 16015A   21232.23138066  .00000136  00000-0  00000-0 0  9992
2 41384   1.9564 182.1251 0018510 189.5691  72.8334  1.00273946 19998
BEIDOU IGSO-6           
1 41434U 16021A   21232.25385749 -.00000126  00000-0  00000-0 0  9999
2 41434  57.6517  55.9675 0038852 210.6087 247.1604  1.00257284 19818
IRNSS-1G                
1 41469U 16027A   21232.39426236 -.00000359  00000-0  00000-0 0  9993
2 41469   1.9273 185.6955 0004672 288.8323 125.8455  1.00268029 19514
JCSAT-2B                
1 41471U 16028A   21232.45524414 -.00000187  00000-0  00000-0 0  9990
2 41471   0.0128 101.4421 0002227  43.1067 142.3183  1.00270239 19452
THAICOM 8               
1 41552U 16031A   21232.39771654 -.00000143  00000-0  00000-0 0  9999
2 41552   0.0698  72.6351 0003239  29.3461  88.6401  1.00269777 19059
INTELSAT 31 (IS-31)     
1 41581U 16035A   21232.34944701 -.00000172  00000-0  00000-0 0  9997
2 41581   0.0266 222.4233 0001190 351.1625 146.0430  1.00271093 18939
BEIDOU-2 G7             
1 41586U 16037A   21232.39042477 -.00000376  00000-0  00000-0 0  9994
2 41586   1.8333  68.4582 0008674  17.0950 134.4436  1.00274798 19120
ABS-2A (MONGOLSAT-1)    
1 41588U 16038A   21232.40309990 -.00000105  00000-0  00000-0 0  9995
2 41588   0.0092  81.4695 0002329 346.5660 120.7184  1.00271112 19040
EUTELSAT 117 WEST B     
1 41589U 16038B   21232.46559483 -.00000033  00000-0  00000-0 0  9996
2 41589   0.0122 224.8221 0000349  36.4598 118.3583  1.00274244 19009
BRISAT                  
1 41591U 16039A   21232.45188005 -.00000218  00000-0  00000-0 0  9992
2 41591   0.0166 119.6361 0002363  26.8142 135.7195  1.00270393 18958
ECHOSTAR 18             
1 41592U 16039B   21232.42792858 -.00000303  00000-0  00000-0 0  9992
2 41592   0.0133 104.9425 0001797  40.9866 275.7309  1.00272352 18961
MUOS-5                  
1 41622U 16041A   21231.54656264 -.00000162  00000-0  00000+0 0  9993
2 41622   6.3088 303.3976 0203943 227.6771 248.7530  1.00271356 19392
TIANTONG-1 1            
1 41725U 16048A   21232.38859318 -.00000336  00000-0  00000-0 0  9996
2 41725   2.4791 345.8092 0002089 131.5333  92.8534  1.00274893 18603
JCSAT-16                
1 41729U 16050A   21230.88985416 -.00000254  00000-0  00000-0 0  9994
2 41729   0.0455  97.8046 0005831  57.2360 276.7516  1.00346493 18387
USA 270                 
1 41744U 16052A   21222.47375545  .00000129  00000-0  00000+0 0  9994
2 41744   0.0420 169.2227 0000736 130.1572 242.2322  0.99957502   971
USA 271                 
1 41745U 16052B   21211.43428510 -.00000364  00000-0  00000+0 0  9992
2 41745   1.0455  95.9289 0000469 124.7096   6.5498  1.00082083   866
INTELSAT 36 (IS-36)     
1 41747U 16053A   21232.40327348 -.00000046  00000-0  00000-0 0  9990
2 41747   0.0142  68.5721 0003156 313.2227 160.8144  1.00271103 18307
INTELSAT 33E (IS-33E)   
1 41748U 16053B   21232.40882788  .00000027  00000-0  00000-0 0  9993
2 41748   0.0280   4.5410 0002266 143.8853  27.6863  1.00272586 18583
INSAT-3DR               
1 41752U 16054A   21232.40327348 -.00000099  00000-0  00000-0 0  9995
2 41752   0.0529 100.3027 0010217 162.1678 285.6494  1.00271214 18142
GSAT-18                 
1 41793U 16060A   21232.40327348 -.00000099  00000-0  00000-0 0  9997
2 41793   0.0807  99.4062 0002268 339.9539 108.7517  1.00272037 17874
SKY MUSTER 2 (NBN1B)    
1 41794U 16060B   21232.44731035 -.00000266  00000-0  00000-0 0  9990
2 41794   0.0225 134.5702 0001751  14.0199 126.2387  1.00268858 17854
HIMAWARI-9              
1 41836U 16064A   21232.39644281 -.00000297  00000-0  00000-0 0  9995
2 41836   0.0476 285.0908 0000592 232.5308  94.7799  1.00269163 17520
SHIJIAN-17 (SJ-17)      
1 41838U 16065A   21232.69933045 -.00000385  00000-0  00000+0 0  9997
2 41838   1.2763  92.5109 0002930  35.1636 210.8427  1.00274818 17563
GOES 16                 
1 41866U 16071A   21232.35337182 -.00000269  00000-0  00000-0 0  9990
2 41866   0.1117  98.6735 0001163  65.2280 216.9969  1.00271676 17447
TIANLIAN 1-04           
1 41869U 16072A   21232.43938557  .00000009  00000-0  00000-0 0  9997
2 41869   0.1480 260.1428 0024953 212.4958 191.2805  1.00271209 17657
